*******************************************************************************
Ephemeris / WWW_USER Mon Jul 15 19:28:20 2024 Pasadena, USA      / Horizons    
*******************************************************************************
Target body name: (2018 RA1)                      {source: JPL#6}
Center body name: Earth (399)                     {source: DE441}
Center-site name: Gemini South Obs., Cerro Pachon
*******************************************************************************
Start time      : A.D. 2018-Oct-10 22:58:00.0000 UT      
Stop  time      : A.D. 2018-Oct-11 10:01:00.0000 UT      
Step-size       : 1 minutes
*******************************************************************************
Target pole/equ : undefined
Target radii    : undefined                                                    
Center geodetic : 289.2634, -30.2406227, 2.71233  {E-lon(deg),Lat(deg),Alt(km)}
Center cylindric: 289.2634,5517.21435,-3194.81213 {E-lon(deg),Dxy(km),Dz(km)}
Center pole/equ : ITRF93                          {East-longitude positive}
Center radii    : 6378.137, 6378.137, 6356.752 km {Equator_a, b, pole_c}       
Target primary  : Sun
Vis. interferer : MOON (R_eq= 1737.400) km        {source: DE441}
Rel. light bend : Sun                             {source: DE441}
Rel. lght bnd GM: 1.3271E+11 km^3/s^2                                          
Small-body perts: Yes                             {source: SB441-N16}
Atmos refraction: NO (AIRLESS)
RA format       : HMS
Time format     : CAL 
Calendar mode   : Mixed Julian/Gregorian
RTS-only print  : NO       
EOP file        : eop.240715.p241008                                           
EOP coverage    : DATA-BASED 1962-JAN-20 TO 2024-JUL-15. PREDICTS-> 2024-OCT-07
Units conversion: 1 au= 149597870.700 km, c= 299792.458 km/s, 1 day= 86400.0 s 
Table cut-offs 1: Elevation (-90.0deg=NO ),Airmass (>38.000=NO), Daylight (YES)
Table cut-offs 2: Solar elongation (  0.0,180.0=NO ),Local Hour Angle( 0.0=NO )
Table cut-offs 3: RA/DEC angular rate (     0.0=NO )                           
*******************************************************************************
Initial IAU76/J2000 heliocentric ecliptic osculating elements (au, days, deg.):
  EPOCH=  2458369.5 ! 2018-Sep-08.00 (TDB)         Residual RMS= .21275        
   EC= .3232115344739424   QR= .7703453101153647   TP= 2458436.6763547547      
   OM= 166.2054176892707   W=  269.7217787981747   IN= 8.763099478405824       
  Equivalent ICRF heliocentric cartesian coordinates (au, au/d):
   X= 9.899686155013647E-01  Y=-2.468208982240139E-01  Z=-1.030323866474361E-01
  VX=-9.411283005844916E-04 VY= 1.717513364149167E-02 VZ= 4.613440841260365E-03
Asteroid physical parameters (km, seconds, rotational period in hours):        
   GM= n.a.                RAD= n.a.               ROTPER= n.a.                
   H= 26.4                 G= .150                 B-V= n.a.                   
                           ALBEDO= n.a.            STYP= n.a.                  
*******************************************************************************
 Date__(UT)__HR:MN     R.A._________(ICRF)_________DEC
******************************************************
$$SOE
 2018-Oct-11 07:10     10 48 47.868124 -18 56 09.98511
 2018-Oct-11 07:11     10 48 47.911069 -18 56 09.59445
 2018-Oct-11 07:12     10 48 47.953961 -18 56 09.20386
 2018-Oct-11 07:13     10 48 47.996802 -18 56 08.81334
 2018-Oct-11 07:14     10 48 48.039591 -18 56 08.42289
 2018-Oct-11 07:15     10 48 48.082329 -18 56 08.03251
 2018-Oct-11 07:16  r  10 48 48.125014 -18 56 07.64220
 2018-Oct-11 07:17     10 48 48.167648 -18 56 07.25196
 2018-Oct-11 07:18     10 48 48.210230 -18 56 06.86179
 2018-Oct-11 07:19     10 48 48.252759 -18 56 06.47168
 2018-Oct-11 07:20     10 48 48.295237 -18 56 06.08163
 2018-Oct-11 07:21     10 48 48.337662 -18 56 05.69165
 2018-Oct-11 07:22     10 48 48.380036 -18 56 05.30173
 2018-Oct-11 07:23     10 48 48.422357 -18 56 04.91187
 2018-Oct-11 07:24     10 48 48.464626 -18 56 04.52207
 2018-Oct-11 07:25     10 48 48.506842 -18 56 04.13233
 2018-Oct-11 07:26     10 48 48.549006 -18 56 03.74265
 2018-Oct-11 07:27     10 48 48.591118 -18 56 03.35303
 2018-Oct-11 07:28     10 48 48.633177 -18 56 02.96346
 2018-Oct-11 07:29     10 48 48.675184 -18 56 02.57394
 2018-Oct-11 07:30     10 48 48.717139 -18 56 02.18448
 2018-Oct-11 07:31     10 48 48.759040 -18 56 01.79507
 2018-Oct-11 07:32     10 48 48.800889 -18 56 01.40571
 2018-Oct-11 07:33     10 48 48.842686 -18 56 01.01640
 2018-Oct-11 07:34     10 48 48.884430 -18 56 00.62714
 2018-Oct-11 07:35     10 48 48.926121 -18 56 00.23793
 2018-Oct-11 07:36     10 48 48.967759 -18 55 59.84877
 2018-Oct-11 07:37     10 48 49.009344 -18 55 59.45965
 2018-Oct-11 07:38     10 48 49.050877 -18 55 59.07057
 2018-Oct-11 07:39     10 48 49.092356 -18 55 58.68154
 2018-Oct-11 07:40     10 48 49.133783 -18 55 58.29255
 2018-Oct-11 07:41     10 48 49.175157 -18 55 57.90360
 2018-Oct-11 07:42     10 48 49.216478 -18 55 57.51470
 2018-Oct-11 07:43     10 48 49.257746 -18 55 57.12583
 2018-Oct-11 07:44     10 48 49.298961 -18 55 56.73700
 2018-Oct-11 07:45     10 48 49.340123 -18 55 56.34820
 2018-Oct-11 07:46     10 48 49.381231 -18 55 55.95945
 2018-Oct-11 07:47     10 48 49.422287 -18 55 55.57072
 2018-Oct-11 07:48     10 48 49.463290 -18 55 55.18203
 2018-Oct-11 07:49     10 48 49.504239 -18 55 54.79338
 2018-Oct-11 07:50     10 48 49.545135 -18 55 54.40475
 2018-Oct-11 07:51     10 48 49.585978 -18 55 54.01615
 2018-Oct-11 07:52     10 48 49.626768 -18 55 53.62759
 2018-Oct-11 07:53     10 48 49.667504 -18 55 53.23905
 2018-Oct-11 07:54     10 48 49.708188 -18 55 52.85054
 2018-Oct-11 07:55     10 48 49.748818 -18 55 52.46205
 2018-Oct-11 07:56     10 48 49.789394 -18 55 52.07359
 2018-Oct-11 07:57     10 48 49.829918 -18 55 51.68515
 2018-Oct-11 07:58     10 48 49.870388 -18 55 51.29674
 2018-Oct-11 07:59     10 48 49.910805 -18 55 50.90834
 2018-Oct-11 08:00     10 48 49.951168 -18 55 50.51997
 2018-Oct-11 08:01     10 48 49.991479 -18 55 50.13161
 2018-Oct-11 08:02     10 48 50.031735 -18 55 49.74328
 2018-Oct-11 08:03     10 48 50.071939 -18 55 49.35496
 2018-Oct-11 08:04     10 48 50.112089 -18 55 48.96665
 2018-Oct-11 08:05     10 48 50.152186 -18 55 48.57836
 2018-Oct-11 08:06     10 48 50.192229 -18 55 48.19009
 2018-Oct-11 08:07     10 48 50.232219 -18 55 47.80182
 2018-Oct-11 08:08     10 48 50.272155 -18 55 47.41357
 2018-Oct-11 08:09     10 48 50.312038 -18 55 47.02533
 2018-Oct-11 08:10     10 48 50.351868 -18 55 46.63710
 2018-Oct-11 08:11     10 48 50.391645 -18 55 46.24887
 2018-Oct-11 08:12     10 48 50.431368 -18 55 45.86065
 2018-Oct-11 08:13     10 48 50.471037 -18 55 45.47244
 2018-Oct-11 08:14     10 48 50.510653 -18 55 45.08423
 2018-Oct-11 08:15     10 48 50.550216 -18 55 44.69603
 2018-Oct-11 08:16     10 48 50.589726 -18 55 44.30783
 2018-Oct-11 08:17     10 48 50.629182 -18 55 43.91962
 2018-Oct-11 08:18     10 48 50.668585 -18 55 43.53142
 2018-Oct-11 08:19     10 48 50.707934 -18 55 43.14322
 2018-Oct-11 08:20     10 48 50.747230 -18 55 42.75502
 2018-Oct-11 08:21     10 48 50.786473 -18 55 42.36681
 2018-Oct-11 08:22     10 48 50.825662 -18 55 41.97860
 2018-Oct-11 08:23     10 48 50.864799 -18 55 41.59038
 2018-Oct-11 08:24     10 48 50.903881 -18 55 41.20216
 2018-Oct-11 08:25     10 48 50.942911 -18 55 40.81393
 2018-Oct-11 08:26     10 48 50.981887 -18 55 40.42569
 2018-Oct-11 08:27     10 48 51.020810 -18 55 40.03744
 2018-Oct-11 08:28     10 48 51.059680 -18 55 39.64918
 2018-Oct-11 08:29     10 48 51.098497 -18 55 39.26091
 2018-Oct-11 08:30     10 48 51.137260 -18 55 38.87263
 2018-Oct-11 08:31     10 48 51.175971 -18 55 38.48433
 2018-Oct-11 08:32     10 48 51.214628 -18 55 38.09601
 2018-Oct-11 08:33     10 48 51.253232 -18 55 37.70768
 2018-Oct-11 08:34     10 48 51.291783 -18 55 37.31933
 2018-Oct-11 08:35     10 48 51.330281 -18 55 36.93096
 2018-Oct-11 08:36     10 48 51.368725 -18 55 36.54258
 2018-Oct-11 08:37     10 48 51.407117 -18 55 36.15417
 2018-Oct-11 08:38     10 48 51.445456 -18 55 35.76574
 2018-Oct-11 08:39     10 48 51.483742 -18 55 35.37728
 2018-Oct-11 08:40     10 48 51.521975 -18 55 34.98881
 2018-Oct-11 08:41     10 48 51.560155 -18 55 34.60030
 2018-Oct-11 08:42     10 48 51.598282 -18 55 34.21177
 2018-Oct-11 08:43     10 48 51.636357 -18 55 33.82322
 2018-Oct-11 08:44     10 48 51.674378 -18 55 33.43463
 2018-Oct-11 08:45     10 48 51.712347 -18 55 33.04602
 2018-Oct-11 08:46     10 48 51.750263 -18 55 32.65737
 2018-Oct-11 08:47     10 48 51.788127 -18 55 32.26869
 2018-Oct-11 08:48 A   10 48 51.825937 -18 55 31.87998
 2018-Oct-11 08:49 A   10 48 51.863696 -18 55 31.49124
 2018-Oct-11 08:50 A   10 48 51.901401 -18 55 31.10246
 2018-Oct-11 08:51 A   10 48 51.939054 -18 55 30.71364
 2018-Oct-11 08:52 A   10 48 51.976655 -18 55 30.32479
 2018-Oct-11 08:53 A   10 48 52.014203 -18 55 29.93590
 2018-Oct-11 08:54 A   10 48 52.051699 -18 55 29.54697
 2018-Oct-11 08:55 A   10 48 52.089142 -18 55 29.15799
 2018-Oct-11 08:56 A   10 48 52.126534 -18 55 28.76898
 2018-Oct-11 08:57 A   10 48 52.163873 -18 55 28.37992
 2018-Oct-11 08:58 A   10 48 52.201159 -18 55 27.99082
 2018-Oct-11 08:59 A   10 48 52.238394 -18 55 27.60168
 2018-Oct-11 09:00 A   10 48 52.275576 -18 55 27.21248
 2018-Oct-11 09:01 A   10 48 52.312707 -18 55 26.82324
 2018-Oct-11 09:02 A   10 48 52.349785 -18 55 26.43396
 2018-Oct-11 09:03 A   10 48 52.386812 -18 55 26.04462
 2018-Oct-11 09:04 A   10 48 52.423787 -18 55 25.65523
 2018-Oct-11 09:05 A   10 48 52.460709 -18 55 25.26580
 2018-Oct-11 09:06 A   10 48 52.497580 -18 55 24.87630
 2018-Oct-11 09:07 A   10 48 52.534400 -18 55 24.48676
 2018-Oct-11 09:08 A   10 48 52.571168 -18 55 24.09716
 2018-Oct-11 09:09 A   10 48 52.607884 -18 55 23.70750
 2018-Oct-11 09:10 A   10 48 52.644548 -18 55 23.31779
 2018-Oct-11 09:11 A   10 48 52.681161 -18 55 22.92802
 2018-Oct-11 09:12 A   10 48 52.717723 -18 55 22.53819
